[{"OBJECT_NAME":"STARLINK-6277","OBJECT_ID":"2023-061AB","EPOCH":"2026-03-09T22:00:01.999584","MEAN_MOTION":15.06487571,"ECCENTRICITY":0.00020582,"INCLINATION":42.9995,"RA_OF_ASC_NODE":183.5468,"ARG_OF_PERICENTER":278.8022,"MEAN_ANOMALY":136.7338,"EPHEMERIS_TYPE":0,"CLASSIFICATION_TYPE":"U","NORAD_CAT_ID":56399,"ELEMENT_SET_NO":999,"REV_AT_EPOCH":573,"BSTAR":0.0017676761,"MEAN_MOTION_DOT":0.00026434,"MEAN_MOTION_DDOT":0},{"OBJECT_NAME":"ISTSAT-1","OBJECT_ID":"2024-128D","EPOCH":"2026-03-09T22:00:43.506144","MEAN_MOTION":15.10231455,"ECCENTRICITY":0.00491528,"INCLINATION":61.9882,"RA_OF_ASC_NODE":196.777,"ARG_OF_PERICENTER":111.8391,"MEAN_ANOMALY":248.7942,"EPHEMERIS_TYPE":0,"CLASSIFICATION_TYPE":"U","NORAD_CAT_ID":60238,"ELEMENT_SET_NO":999,"REV_AT_EPOCH":9146,"BSTAR":0.00064802971,"MEAN_MOTION_DOT":0.0001075,"MEAN_MOTION_DDOT":0}]
